NORAD_CAT_ID,OBJECT_NAME,OBJECT_TYPE,EPOCH,MEAN_MOTION,ECCENTRICITY,INCLINATION,RA_OF_ASC_NODE,ARG_OF_PERICENTER,MEAN_ANOMALY,BSTAR,MEAN_MOTION_DOT,MEAN_MOTION_DDOT,TLE_LINE0,TLE_LINE1,TLE_LINE2,SEMIMAJOR_AXIS,PERIOD,APOGEE,PERIGEE,DECAYED
53416.0,STARLINK-4480,PAYLOAD,2022-12-31 05:55:31,15.08888369,0.0002881999999999,53.2184,301.5053,30.5639,329.5521,0.0004759999999999,7.305e-05,0.0,0 STARLINK-4480,1 53416U 22097AE  22365.24689496  .00007305  00000-0  47600-3 0  9990,2 53416  53.2184 301.5053 0002882  30.5639 329.5521 15.08888369 22374,6917.733,95.434,541.591,537.604,0.0
53416.0,STARLINK-4480,PAYLOAD,2022-12-31 10:41:42,15.08823542,0.000259,53.2182,300.6132,36.476,323.6408,-0.00096915,-0.00015673,0.0,0 STARLINK-4480,1 53416U 22097AE  22365.44563492 -.00015673  00000-0 -96915-3 0  9991,2 53416  53.2182 300.6132 0002590  36.4760 323.6408 15.08823542 22401,6917.931,95.439,541.587,538.004,0.0
53416.0,STARLINK-4480,PAYLOAD,2022-12-31 20:14:01,15.08809732,0.0002373,53.2183,298.8292,41.5765,318.5407,-0.00016873,-2.971e-05,0.0,0 STARLINK-4480,1 53416U 22097AE  22365.84307833 -.00002971  00000-0 -16873-3 0  9992,2 53416  53.2183 298.8292 0002373  41.5765 318.5407 15.08809732 22922,6917.973000000001,95.439,541.48,538.196,0.0
53416.0,STARLINK-4480,PAYLOAD,2023-01-01 12:07:54,15.08815935,0.0002275999999999,53.2183,295.8558,43.5964,316.5208,0.0015589,0.00024593,0.0,0 STARLINK-4480,1 53416U 22097AE  23001.50549549  .00024593  00000-0  15589-2 0  9999,2 53416  53.2183 295.8558 0002276  43.5964 316.5208 15.08815935 22568,6917.954000000002,95.439,541.393,538.244,0.0
53416.0,STARLINK-4480,PAYLOAD,2023-01-01 20:04:50,15.08831123,0.0002275999999999,53.2183,294.3691,45.2323,314.8854,0.0014449999999999,0.00022779,0.0,0 STARLINK-4480,1 53416U 22097AE  23001.83669891  .00022779  00000-0  14450-2 0  9998,2 53416  53.2183 294.3691 0002276  45.2323 314.8854 15.08831123 23070,6917.908,95.438,541.347,538.198,0.0
53416.0,STARLINK-4480,PAYLOAD,2023-01-02 11:58:41,15.08853845,0.0002059,53.2182,291.3955,42.2116,317.9035,0.0011748,0.00018466,0.0,0 STARLINK-4480,1 53416U 22097AE  23002.49909671  .00018466  00000-0  11748-2 0  9999,2 53416  53.2182 291.3955 0002059  42.2116 317.9035 15.08853845 23176,6917.8380000000025,95.437,541.127,538.279,0.0
53416.0,STARLINK-4480,PAYLOAD,2023-01-02 21:31:00,15.08858184,0.000231,53.2181,289.6112,47.8607,312.2581,0.00081333,0.00012686,0.0,0 STARLINK-4480,1 53416U 22097AE  23002.89653444  .00012686  00000-0  81333-3 0  9993,2 53416  53.2181 289.6112 0002310  47.8607 312.2581 15.08858184 22776,6917.825,95.436,541.288,538.092,0.0
53416.0,STARLINK-4480,PAYLOAD,2023-01-03 13:24:51,15.08843431,0.0002134999999999,53.218,286.6377,51.855,308.2635,-0.0001271,-2.311e-05,0.0,0 STARLINK-4480,1 53416U 22097AE  23003.55893117 -.00002311  00000-0 -12710-3 0  9999,2 53416  53.2180 286.6377 0002135  51.8550 308.2635 15.08843431 22877,6917.87,95.437,541.212,538.258,0.0
53416.0,STARLINK-4480,PAYLOAD,2023-01-04 11:40:15,15.08855953,0.0001641999999999,53.2179,282.475,49.4774,310.6361,0.00087225,0.00013627,0.0,0 STARLINK-4480,1 53416U 22097AE  23004.48628765  .00013627  00000-0  87225-3 0  9990,2 53416  53.2179 282.4750 0001642  49.4774 310.6361 15.08855953 23479,6917.831999999999,95.437,540.8330000000002,538.561,0.0
53416.0,STARLINK-4480,PAYLOAD,2023-01-04 22:47:56,15.08862605,0.0002133999999999,53.2176,280.3935,57.2265,302.8933,0.00080437,0.00012545,0.0,0 STARLINK-4480,1 53416U 22097AE  23004.94996426  .00012545  00000-0  80437-3 0  9999,2 53416  53.2176 280.3935 0002134  57.2265 302.8933 15.08862605 23084,6917.811,95.436,541.153,538.2,0.0
53416.0,STARLINK-4480,PAYLOAD,2023-01-05 08:20:16,15.08820614,0.0002745,53.2177,278.6096,53.8202,306.3043,-0.0012332,-0.00019852,0.0,0 STARLINK-4480,1 53416U 22097AE  23005.34740758 -.00019852  00000-0 -12332-2 0  9997,2 53416  53.2177 278.6096 0002745  53.8202 306.3043 15.08820614 23146,6917.94,95.439,541.7040000000002,537.906,0.0
53416.0,STARLINK-4480,PAYLOAD,2023-01-05 13:06:25,15.08821164,0.0001914,53.2177,277.7176,70.2491,289.8708,-0.00099549,-0.00016088,0.0,0 STARLINK-4480,1 53416U 22097AE  23005.54612638 -.00016088  00000-0 -99549-3 0  9998,2 53416  53.2177 277.7176 0001914  70.2491 289.8708 15.08821164 23633,6917.938,95.439,541.127,538.479,0.0
53416.0,STARLINK-4480,PAYLOAD,2023-01-05 17:52:35,15.08812001,0.0001991,53.2175,276.8256,68.8428,291.2776,0.00027379,4.069e-05,0.0,0 STARLINK-4480,1 53416U 22097AE  23005.74485042  .00004069  00000-0  27379-3 0  9993,2 53416  53.2175 276.8256 0001991  68.8428 291.2776 15.08812001 23663,6917.965999999999,95.439,541.2080000000002,538.4540000000002,0.0
53416.0,STARLINK-4480,PAYLOAD,2023-01-06 11:21:50,15.08835964,0.0001966,53.2176,273.5549,74.2057,285.9152,0.0014661,0.0002312,0.0,0 STARLINK-4480,1 53416U 22097AE  23006.47349881  .00023120  00000-0  14661-2 0  9992,2 53416  53.2176 273.5549 0001966  74.2057 285.9152 15.08835964 23317,6917.893,95.438,541.118,538.398,0.0
53416.0,STARLINK-4480,PAYLOAD,2023-01-07 01:40:18,15.08867998,0.0002005,53.2176,270.8794,73.7607,286.3606,0.0015821,0.00025,0.0,0 STARLINK-4480,1 53416U 22097AE  23007.06965342  .00025000  00000-0  15821-2 0  9992,2 53416  53.2176 270.8794 0002005  73.7607 286.3606 15.08867998 23860,6917.795,95.436,541.047,538.273,0.0
53416.0,STARLINK-4480,PAYLOAD,2023-01-07 17:34:09,15.08850902,0.0002663,53.2181,267.9058,75.2339,284.8948,0.0012147,0.00019103,0.0,0 STARLINK-4480,1 53416U 22097AE  23007.73205550  .00019103  00000-0  12147-2 0  9999,2 53416  53.2181 267.9058 0002663  75.2339 284.8948 15.08850902 23505,6917.847,95.437,541.554,537.87,0.0
53416.0,STARLINK-4480,PAYLOAD,2023-01-08 03:06:28,15.08854083,0.0001831,53.2175,266.1212,81.0938,279.0262,0.00067631,0.00010496,0.0,0 STARLINK-4480,1 53416U 22097AE  23008.12949256  .00010496  00000-0  67631-3 0  9996,2 53416  53.2175 266.1212 0001831  81.0938 279.0262 15.08854083 23562,6917.837,95.437,540.969,538.436,0.0
53416.0,STARLINK-4480,PAYLOAD,2023-01-08 17:24:57,15.08841754,0.0003027,53.2182,263.4447,70.5272,289.6047,0.00050981,7.835e-05,0.0,0 STARLINK-4480,1 53416U 22097AE  23008.72565985  .00007835  00000-0  50981-3 0  9998,2 53416  53.2182 263.4447 0003027  70.5272 289.6047 15.08841754 23652,6917.875,95.437,541.8340000000002,537.646,0.0
53416.0,STARLINK-4480,PAYLOAD,2023-01-09 09:18:48,15.08838815,0.0002124,53.2173,260.471,79.7414,280.3817,6.6033e-05,7.63e-06,0.0,0 STARLINK-4480,1 53416U 22097AE  23009.38805779  .00000763  00000-0  66033-4 0  9998,2 53416  53.2173 260.4710 0002124  79.7414 280.3817 15.08838815 24218,6917.884,95.438,541.2180000000002,538.28,0.0
53416.0,STARLINK-4480,PAYLOAD,2023-01-09 15:40:20,15.08838293,0.0002155,53.2174,259.2814,79.4299,280.6936,0.00013298,1.829e-05,0.0,0 STARLINK-4480,1 53416U 22097AE  23009.65302013  .00001829  00000-0  13298-3 0  9999,2 53416  53.2174 259.2814 0002155  79.4299 280.6936 15.08838293 23799,6917.886,95.438,541.241,538.26,0.0
53416.0,STARLINK-4480,PAYLOAD,2023-01-10 09:09:35,15.0884048,0.0001937,53.2154,256.0111,85.0485,275.0728,0.00013462,1.855e-05,0.0,0 STARLINK-4480,1 53416U 22097AE  23010.38165879  .00001855  00000-0  13462-3 0  9990,2 53416  53.2154 256.0111 0001937  85.0485 275.0728 15.08840480 24361,6917.879,95.438,541.0840000000002,538.404,0.0
53416.0,STARLINK-4480,PAYLOAD,2023-01-10 23:28:03,15.08845364,0.0002091,53.2166,253.3342,83.6311,276.4919,0.00018603,2.674e-05,0.0,0 STARLINK-4480,1 53416U 22097AE  23010.97781809  .00002674  00000-0  18603-3 0  9994,2 53416  53.2166 253.3342 0002091  83.6311 276.4919 15.08845364 23995,6917.864000000001,95.437,541.1759999999998,538.2819999999998,0.0
53416.0,STARLINK-4480,PAYLOAD,2023-01-11 09:00:21,15.08848831,0.0001083,53.2168,251.5489,81.7818,278.3297,0.00019859,2.875e-05,0.0,0 STARLINK-4480,1 53416U 22097AE  23011.37525120  .00002875  00000-0  19859-3 0  9998,2 53416  53.2168 251.5489 0001083  81.7818 278.3297 15.08848831 24511,6917.853,95.437,540.4680000000002,538.969,0.0
53416.0,STARLINK-4480,PAYLOAD,2023-01-11 16:57:17,15.0883855,0.0001968,53.2159,250.0637,83.585,276.5366,1.7064e-05,-1.7e-07,0.0,0 STARLINK-4480,1 53416U 22097AE  23011.70645744 -.00000017  00000-0  17064-4 0  9994,2 53416  53.2159 250.0637 0001968  83.5850 276.5366 15.08838550 24107,6917.885,95.438,541.111,538.388,0.0
53416.0,STARLINK-4480,PAYLOAD,2023-01-12 21:34:14,15.08840341,0.0001916,53.2178,244.7126,83.3188,276.8023,0.00016441,2.329e-05,0.0,0 STARLINK-4480,1 53416U 22097AE  23012.89877956  .00002329  00000-0  16441-3 0  9991,2 53416  53.2178 244.7126 0001916  83.3188 276.8023 15.08840341 24740,6917.879,95.438,541.07,538.419,0.0
53416.0,STARLINK-4480,PAYLOAD,2023-01-13 00:45:00,15.08842502,0.0001934,53.2158,244.1167,84.7087,275.4125,0.00018341,2.632e-05,0.0,0 STARLINK-4480,1 53416U 22097AE  23013.03125908  .00002632  00000-0  18341-3 0  9999,2 53416  53.2158 244.1167 0001934  84.7087 275.4125 15.08842502 24301,6917.873000000001,95.437,541.076,538.4,0.0
53416.0,STARLINK-4480,PAYLOAD,2023-01-13 08:41:56,15.08844381,0.0001859,53.216,242.6304,84.2485,275.8719,0.00022127,3.236e-05,0.0,0 STARLINK-4480,1 53416U 22097AE  23013.36245870  .00003236  00000-0  22127-3 0  9994,2 53416  53.2160 242.6304 0001859  84.2485 275.8719 15.08844381 24819,6917.866999999999,95.437,541.018,538.446,0.0
53416.0,STARLINK-4480,PAYLOAD,2023-01-13 21:25:01,15.08846128,0.0001778,53.2165,240.2506,90.4143,269.7053,0.000272,4.044e-05,0.0,0 STARLINK-4480,1 53416U 22097AE  23013.89237901  .00004044  00000-0  27200-3 0  9993,2 53416  53.2165 240.2506 0001778  90.4143 269.7053 15.08846128 24894,6917.861999999999,95.437,540.957,538.497,0.0
53416.0,STARLINK-4480,PAYLOAD,2023-01-14 14:54:16,15.08838513,0.0001811999999999,53.2143,236.9788,91.4273,268.6926,0.00010894,1.446e-05,0.0,0 STARLINK-4480,1 53416U 22097AE  23014.62102199  .00001446  00000-0  10894-3 0  9999,2 53416  53.2143 236.9788 0001812  91.4273 268.6926 15.08838513 24546,6917.885,95.438,541.003,538.496,0.0
